{"type": "FeatureCollection", "features": [ {"type": "Feature", "properties": {"norad_id": 67066, "name": "HULIANWANG DIGUI 16H", "group": "last-30-days", "lat": -15.590497147567671, "lon": -22.476192920308414, "alt_km": 803.3845581310716, "timestamp": "2025-12-17T17:50:17.976116+00:00", "meta": {"OBJECT_NAME": "HULIANWANG DIGUI 16H", "OBJECT_ID": "2025-295H", "EPOCH": "2025-12-12T05:06:20.088000", "MEAN_MOTION": 14.26429655, "ECCENTRICITY": 0.00114905, "INCLINATION": 50.0029, "RA_OF_ASC_NODE": 14.4606, "ARG_OF_PERICENTER": 248.6611, "MEAN_ANOMALY": 111.3077, "EPHEMERIS_TYPE": 0, "CLASSIFICATION_TYPE": "U", "NORAD_CAT_ID": 67066, "ELEMENT_SET_NO": 999, "REV_AT_EPOCH": 4, "BSTAR": 2.4353642e-05, "MEAN_MOTION_DOT": -1.01e-06, "MEAN_MOTION_DDOT": 0}, "tle": {"line1": "1 67066U 25295H   25346.21273250 -.00000101  00000+0  24354-4 0  9994", "line2": "2 67066  50.0029  14.4606 0011490 248.6611 111.3077 14.26429655    45"}}, "geometry": {"type": "Point", "coordinates": [-22.476192920308414, -15.590497147567671]}}, {"type": "Feature", "properties": {"norad_id": 67067, "name": "HULIANWANG DIGUI 16J", "group": "last-30-days", "lat": -16.541502323188627, "lon": -23.354444112650548, "alt_km": 803.2440319526631, "timestamp": "2025-12-17T17:50:17.976126+00:00", "meta": {"OBJECT_NAME": "HULIANWANG DIGUI 16J", "OBJECT_ID": "2025-295J", "EPOCH": "2025-12-12T05:06:18.555264", "MEAN_MOTION": 14.26361638, "ECCENTRICITY": 0.00104901, "INCLINATION": 50.0044, "RA_OF_ASC_NODE": 14.4694, "ARG_OF_PERICENTER": 253.0387, "MEAN_ANOMALY": 106.9378, "EPHEMERIS_TYPE": 0, "CLASSIFICATION_TYPE": "U", "NORAD_CAT_ID": 67067, "ELEMENT_SET_NO": 999, "REV_AT_EPOCH": 4, "BSTAR": 6.475965e-06, "MEAN_MOTION_DOT": -1.45e-06, "MEAN_MOTION_DDOT": 0}, "tle": {"line1": "1 67067U 25295J   25346.21271476 -.00000145  00000+0  64760-5 0  9997", "line2": "2 67067  50.0044  14.4694 0010490 253.0387 106.9378 14.26361638    49"}}, "geometry": {"type": "Point", "coordinates": [-23.354444112650548, -16.541502323188627]}}, {"type": "Feature", "properties": {"norad_id": 67069, "name": "XIWANG-5 02", "group": "last-30-days", "lat": -15.124152638339249, "lon": -89.07696108409391, "alt_km": 524.4290419145409, "timestamp": "2025-12-17T17:50:17.976137+00:00", "meta": {"OBJECT_NAME": "XIWANG-5 02", "OBJECT_ID": "2025-296A", "EPOCH": "2025-12-17T07:28:01.060032", "MEAN_MOTION": 15.1693037, "ECCENTRICITY": 0.0014147, "INCLINATION": 41.3521, "RA_OF_ASC_NODE": 75.4926, "ARG_OF_PERICENTER": 54.9674, "MEAN_ANOMALY": 305.2472, "EPHEMERIS_TYPE": 0, "CLASSIFICATION_TYPE": "U", "NORAD_CAT_ID": 67069, "ELEMENT_SET_NO": 999, "REV_AT_EPOCH": 65, "BSTAR": 0.00052493643, "MEAN_MOTION_DOT": 0.00010389, "MEAN_MOTION_DDOT": 0}, "tle": {"line1": "1 67069U 25296A   25351.31112338  .00010389  00000+0  52494-3 0  9997", "line2": "2 67069  41.3521  75.4926 0014147  54.9674 305.2472 15.16930370   650"}}, "geometry": {"type": "Point", "coordinates": [-89.07696108409391, -15.124152638339249]}}, {"type": "Feature", "properties": {"norad_id": 67070, "name": "DEAR-5", "group": "last-30-days", "lat": -17.073327234213355, "lon": -86.5425599688995, "alt_km": 526.1946568651229, "timestamp": "2025-12-17T17:50:17.976147+00:00", "meta": {"OBJECT_NAME": "DEAR-5", "OBJECT_ID": "2025-296B", "EPOCH": "2025-12-16T17:13:51.567744", "MEAN_MOTION": 15.16864031, "ECCENTRICITY": 0.00164401, "INCLINATION": 41.3568, "RA_OF_ASC_NODE": 78.872, "ARG_OF_PERICENTER": 53.4577, "MEAN_ANOMALY": 306.7756, "EPHEMERIS_TYPE": 0, "CLASSIFICATION_TYPE": "U", "NORAD_CAT_ID": 67070, "ELEMENT_SET_NO": 999, "REV_AT_EPOCH": 55, "BSTAR": 7.549016e-05, "MEAN_MOTION_DOT": 1.312e-05, "MEAN_MOTION_DDOT": 0}, "tle": {"line1": "1 67070U 25296B   25350.71795796  .00001312  00000+0  75490-4 0  9995", "line2": "2 67070  41.3568  78.8720 0016440  53.4577 306.7756 15.16864031   556"}}, "geometry": {"type": "Point", "coordinates": [-86.5425599688995, -17.073327234213355]}}, {"type": "Feature", "properties": {"norad_id": 67071, "name": "KZ-11 R/B", "group": "last-30-days", "lat": -40.94145679947732, "lon": -5.586087993103601, "alt_km": 454.4933161462941, "timestamp": "2025-12-17T17:50:17.976157+00:00", "meta": {"OBJECT_NAME": "KZ-11 R/B", "OBJECT_ID": "2025-296C", "EPOCH": "2025-12-17T06:47:35.869056", "MEAN_MOTION": 14.72691336, "ECCENTRICITY": 0.07375778, "INCLINATION": 41.3383, "RA_OF_ASC_NODE": 77.5762, "ARG_OF_PERICENTER": 346.2221, "MEAN_ANOMALY": 11.9396, "EPHEMERIS_TYPE": 0, "CLASSIFICATION_TYPE": "U", "NORAD_CAT_ID": 67071, "ELEMENT_SET_NO": 999, "REV_AT_EPOCH": 62, "BSTAR": 0.00048545423, "MEAN_MOTION_DOT": 0.04857343, "MEAN_MOTION_DDOT": 5.667684e-06}, "tle": {"line1": "1 67071U 25296C   25351.28305404  .04857343  56677-5  48545-3 0  9996", "line2": "2 67071  41.3383  77.5762 0737577 346.2221  11.9396 14.72691336   624"}}, "geometry": {"type": "Point", "coordinates": [-5.586087993103601, -40.94145679947732]}}, {"type": "Feature", "properties": {"norad_id": 67072, "name": "ELECTRON R/B", "group": "last-30-days", "lat": 36.47623356234131, "lon": -34.89525408907725, "alt_km": 271.41950226696827, "timestamp": "2025-12-17T17:50:17.976167+00:00", "meta": {"OBJECT_NAME": "ELECTRON R/B", "OBJECT_ID": "2025-297A", "EPOCH": "2025-12-17T08:06:17.532288", "MEAN_MOTION": 15.80276823, "ECCENTRICITY": 0.0228335, "INCLINATION": 97.4783, "RA_OF_ASC_NODE": 139.0903, "ARG_OF_PERICENTER": 215.7414, "MEAN_ANOMALY": 142.8389, "EPHEMERIS_TYPE": 0, "CLASSIFICATION_TYPE": "U", "NORAD_CAT_ID": 67072, "ELEMENT_SET_NO": 999, "REV_AT_EPOCH": 51, "BSTAR": 0.0013827, "MEAN_MOTION_DOT": 0.02024999, "MEAN_MOTION_DDOT": 2.230779e-06}, "tle": {"line1": "1 67072U 25297A   25351.33770292  .02024999  22308-5  13827-2 0  9994", "line2": "2 67072  97.4783 139.0903 0228335 215.7414 142.8389 15.80276823   517"}}, "geometry": {"type": "Point", "coordinates": [-34.89525408907725, 36.47623356234131]}}, {"type": "Feature", "properties": {"norad_id": 67073, "name": "RAISE-4", "group": "last-30-days", "lat": -8.750479033030897, "lon": 140.31727103502064, "alt_km": 543.6836212473836, "timestamp": "2025-12-17T17:50:17.976184+00:00", "meta": {"OBJECT_NAME": "RAISE-4", "OBJECT_ID": "2025-297B", "EPOCH": "2025-12-17T08:19:01.036992", "MEAN_MOTION": 15.07163549, "ECCENTRICITY": 0.00115781, "INCLINATION": 97.4851, "RA_OF_ASC_NODE": 138.7718, "ARG_OF_PERICENTER": 304.1273, "MEAN_ANOMALY": 55.8856, "EPHEMERIS_TYPE": 0, "CLASSIFICATION_TYPE": "U", "NORAD_CAT_ID": 67073, "ELEMENT_SET_NO": 999, "REV_AT_EPOCH": 48, "BSTAR": 0.00025749565, "MEAN_MOTION_DOT": 3.817e-05, "MEAN_MOTION_DDOT": 0}, "tle": {"line1": "1 67073U 25297B   25351.34653978  .00003817  00000+0  25750-3 0  9999", "line2": "2 67073  97.4851 138.7718 0011578 304.1273  55.8856 15.07163549   486"}}, "geometry": {"type": "Point", "coordinates": [140.31727103502064, -8.750479033030897]}}, {"type": "Feature", "properties": {"norad_id": 67074, "name": "ELECTRON KICK STAGE R/B", "group": "last-30-days", "lat": -56.992871306548864, "lon": -52.241973141048234, "alt_km": 273.5068612052437, "timestamp": "2025-12-17T17:50:17.976196+00:00", "meta": {"OBJECT_NAME": "ELECTRON KICK STAGE R/B", "OBJECT_ID": "2025-297C", "EPOCH": "2025-12-17T07:32:31.803072", "MEAN_MOTION": 15.55127618, "ECCENTRICITY": 0.02048941, "INCLINATION": 97.4815, "RA_OF_ASC_NODE": 138.9811, "ARG_OF_PERICENTER": 252.8586, "MEAN_ANOMALY": 105.0142, "EPHEMERIS_TYPE": 0, "CLASSIFICATION_TYPE": "U", "NORAD_CAT_ID": 67074, "ELEMENT_SET_NO": 999, "REV_AT_EPOCH": 49, "BSTAR": 0.0013458249, "MEAN_MOTION_DOT": 0.00238889, "MEAN_MOTION_DDOT": 1.6889925e-05}, "tle": {"line1": "1 67074U 25297C   25351.31425698  .00238889  16890-4  13458-2 0  9992", "line2": "2 67074  97.4815 138.9811 0204894 252.8586 105.0142 15.55127618   491"}}, "geometry": {"type": "Point", "coordinates": [-52.241973141048234, -56.992871306548864]}}, {"type": "Feature", "properties": {"norad_id": 67131, "name": "ZIYUAN 3-04 (ZY 3-04)", "group": "last-30-days", "lat": -67.28947456521112, "lon": 84.18350352785475, "alt_km": 492.4465065084978, "timestamp": "2025-12-17T17:50:17.976209+00:00", "meta": {"OBJECT_NAME": "ZIYUAN 3-04 (ZY 3-04)", "OBJECT_ID": "2025-300A", "EPOCH": "2025-12-16T05:54:33.890112", "MEAN_MOTION": 15.24627585, "ECCENTRICITY": 0.0011082, "INCLINATION": 97.5012, "RA_OF_ASC_NODE": 64.3338, "ARG_OF_PERICENTER": 268.6179, "MEAN_ANOMALY": 91.3789, "EPHEMERIS_TYPE": 0, "CLASSIFICATION_TYPE": "U", "NORAD_CAT_ID": 67131, "ELEMENT_SET_NO": 999, "REV_AT_EPOCH": 2, "BSTAR": 8.3268042e-05, "MEAN_MOTION_DOT": 1.984e-05, "MEAN_MOTION_DDOT": 0}, "tle": {"line1": "1 67131U 25300A   25350.24622558  .00001984  00000+0  83268-4 0  9999", "line2": "2 67131  97.5012  64.3338 0011082 268.6179  91.3789 15.24627585    26"}}, "geometry": {"type": "Point", "coordinates": [84.18350352785475, -67.28947456521112]}}, {"type": "Feature", "properties": {"norad_id": 67132, "name": "CZ-4B R/B", "group": "last-30-days", "lat": 25.02469643022207, "lon": -110.49892263463869, "alt_km": 468.54988804741333, "timestamp": "2025-12-17T17:50:17.976222+00:00", "meta": {"OBJECT_NAME": "CZ-4B R/B", "OBJECT_ID": "2025-300B", "EPOCH": "2025-12-16T16:36:35.897760", "MEAN_MOTION": 15.63436967, "ECCENTRICITY": 0.01737904, "INCLINATION": 97.5576, "RA_OF_ASC_NODE": 64.8224, "ARG_OF_PERICENTER": 16.477, "MEAN_ANOMALY": 344.2037, "EPHEMERIS_TYPE": 0, "CLASSIFICATION_TYPE": "U", "NORAD_CAT_ID": 67132, "ELEMENT_SET_NO": 999, "REV_AT_EPOCH": 9, "BSTAR": 0.00023006068, "MEAN_MOTION_DOT": 0.00046587, "MEAN_MOTION_DDOT": 2.779206e-06}, "tle": {"line1": "1 67132U 25300B   25350.69208215  .00046587  27792-5  23006-3 0  9993", "line2": "2 67132  97.5576  64.8224 0173790  16.4770 344.2037 15.63436967    90"}}, "geometry": {"type": "Point", "coordinates": [-110.49892263463869, 25.02469643022207]}}]}